<?xml version="1.0" encoding="UTF-8"?>
<ndm xmlns:xsi="http://www.w3.org/2001/XMLSchema-instance" xsi:noNamespaceSchemaLocation="https://sanaregistry.org/r/ndmxml_unqualified/ndmxml-2.0.0-master-2.0.xsd">
<omm id="CCSDS_OMM_VERS" version="2.0">
<header><CREATION_DATE/><ORIGINATOR/></header><body><segment><metadata><OBJECT_NAME>ONEWEB-0281</OBJECT_NAME><OBJECT_ID>2021-060AJ</OBJECT_ID><CENTER_NAME>EARTH</CENTER_NAME><REF_FRAME>TEME</REF_FRAME><TIME_SYSTEM>UTC</TIME_SYSTEM><MEAN_ELEMENT_THEORY>SGP4</MEAN_ELEMENT_THEORY></metadata><data><meanElements><EPOCH>2023-10-06T21:45:00.918432</EPOCH><MEAN_MOTION>13.16593649</MEAN_MOTION><ECCENTRICITY>.0001838</ECCENTRICITY><INCLINATION>87.9031</INCLINATION><RA_OF_ASC_NODE>64.6664</RA_OF_ASC_NODE><ARG_OF_PERICENTER>100.8523</ARG_OF_PERICENTER><MEAN_ANOMALY>259.2815</MEAN_ANOMALY></meanElements><tleParameters><EPHEMERIS_TYPE>0</EPHEMERIS_TYPE><CLASSIFICATION_TYPE>U</CLASSIFICATION_TYPE><NORAD_CAT_ID>48999</NORAD_CAT_ID><ELEMENT_SET_NO>999</ELEMENT_SET_NO><REV_AT_EPOCH>11011</REV_AT_EPOCH><BSTAR>-.1787E-4</BSTAR><MEAN_MOTION_DOT>.6E-7</MEAN_MOTION_DOT><MEAN_MOTION_DDOT>0</MEAN_MOTION_DDOT></tleParameters></data></segment></body></omm>
<omm id="CCSDS_OMM_VERS" version="2.0">
<header><CREATION_DATE/><ORIGINATOR/></header><body><segment><metadata><OBJECT_NAME>ONEWEB-0282</OBJECT_NAME><OBJECT_ID>2021-060AK</OBJECT_ID><CENTER_NAME>EARTH</CENTER_NAME><REF_FRAME>TEME</REF_FRAME><TIME_SYSTEM>UTC</TIME_SYSTEM><MEAN_ELEMENT_THEORY>SGP4</MEAN_ELEMENT_THEORY></metadata><data><meanElements><EPOCH>2023-10-06T22:27:34.083360</EPOCH><MEAN_MOTION>13.16594005</MEAN_MOTION><ECCENTRICITY>.0001748</ECCENTRICITY><INCLINATION>87.9031</INCLINATION><RA_OF_ASC_NODE>64.6766</RA_OF_ASC_NODE><ARG_OF_PERICENTER>80.9858</ARG_OF_PERICENTER><MEAN_ANOMALY>279.1471</MEAN_ANOMALY></meanElements><tleParameters><EPHEMERIS_TYPE>0</EPHEMERIS_TYPE><CLASSIFICATION_TYPE>U</CLASSIFICATION_TYPE><NORAD_CAT_ID>49000</NORAD_CAT_ID><ELEMENT_SET_NO>999</ELEMENT_SET_NO><REV_AT_EPOCH>11009</REV_AT_EPOCH><BSTAR>.30456E-3</BSTAR><MEAN_MOTION_DOT>.129E-5</MEAN_MOTION_DOT><MEAN_MOTION_DDOT>0</MEAN_MOTION_DDOT></tleParameters></data></segment></body></omm>
<omm id="CCSDS_OMM_VERS" version="2.0">
<header><CREATION_DATE/><ORIGINATOR/></header><body><segment><metadata><OBJECT_NAME>ONEWEB-0283</OBJECT_NAME><OBJECT_ID>2021-060AL</OBJECT_ID><CENTER_NAME>EARTH</CENTER_NAME><REF_FRAME>TEME</REF_FRAME><TIME_SYSTEM>UTC</TIME_SYSTEM><MEAN_ELEMENT_THEORY>SGP4</MEAN_ELEMENT_THEORY></metadata><data><meanElements><EPOCH>2023-10-06T22:12:22.034592</EPOCH><MEAN_MOTION>13.16594122</MEAN_MOTION><ECCENTRICITY>.0002016</ECCENTRICITY><INCLINATION>87.9090</INCLINATION><RA_OF_ASC_NODE>64.6783</RA_OF_ASC_NODE><ARG_OF_PERICENTER>85.7157</ARG_OF_PERICENTER><MEAN_ANOMALY>274.4204</MEAN_ANOMALY></meanElements><tleParameters><EPHEMERIS_TYPE>0</EPHEMERIS_TYPE><CLASSIFICATION_TYPE>U</CLASSIFICATION_TYPE><NORAD_CAT_ID>49001</NORAD_CAT_ID><ELEMENT_SET_NO>999</ELEMENT_SET_NO><REV_AT_EPOCH>11010</REV_AT_EPOCH><BSTAR>.24325E-3</BSTAR><MEAN_MOTION_DOT>.106E-5</MEAN_MOTION_DOT><MEAN_MOTION_DDOT>0</MEAN_MOTION_DDOT></tleParameters></data></segment></body></omm>
<omm id="CCSDS_OMM_VERS" version="2.0">
<header><CREATION_DATE/><ORIGINATOR/></header><body><segment><metadata><OBJECT_NAME>ONEWEB-0284</OBJECT_NAME><OBJECT_ID>2021-060AM</OBJECT_ID><CENTER_NAME>EARTH</CENTER_NAME><REF_FRAME>TEME</REF_FRAME><TIME_SYSTEM>UTC</TIME_SYSTEM><MEAN_ELEMENT_THEORY>SGP4</MEAN_ELEMENT_THEORY></metadata><data><meanElements><EPOCH>2023-10-06T22:03:14.580000</EPOCH><MEAN_MOTION>13.16595509</MEAN_MOTION><ECCENTRICITY>.0001667</ECCENTRICITY><INCLINATION>87.9016</INCLINATION><RA_OF_ASC_NODE>64.6957</RA_OF_ASC_NODE><ARG_OF_PERICENTER>83.8047</ARG_OF_PERICENTER><MEAN_ANOMALY>276.3273</MEAN_ANOMALY></meanElements><tleParameters><EPHEMERIS_TYPE>0</EPHEMERIS_TYPE><CLASSIFICATION_TYPE>U</CLASSIFICATION_TYPE><NORAD_CAT_ID>49002</NORAD_CAT_ID><ELEMENT_SET_NO>999</ELEMENT_SET_NO><REV_AT_EPOCH>11008</REV_AT_EPOCH><BSTAR>.83969E-4</BSTAR><MEAN_MOTION_DOT>.45E-6</MEAN_MOTION_DOT><MEAN_MOTION_DDOT>0</MEAN_MOTION_DDOT></tleParameters></data></segment></body></omm>
<omm id="CCSDS_OMM_VERS" version="2.0">
<header><CREATION_DATE/><ORIGINATOR/></header><body><segment><metadata><OBJECT_NAME>ONEWEB-0285</OBJECT_NAME><OBJECT_ID>2021-075A</OBJECT_ID><CENTER_NAME>EARTH</CENTER_NAME><REF_FRAME>TEME</REF_FRAME><TIME_SYSTEM>UTC</TIME_SYSTEM><MEAN_ELEMENT_THEORY>SGP4</MEAN_ELEMENT_THEORY></metadata><data><meanElements><EPOCH>2023-10-06T18:22:09.634656</EPOCH><MEAN_MOTION>13.12445683</MEAN_MOTION><ECCENTRICITY>.000185</ECCENTRICITY><INCLINATION>87.9073</INCLINATION><RA_OF_ASC_NODE>186.3872</RA_OF_ASC_NODE><ARG_OF_PERICENTER>70.3781</ARG_OF_PERICENTER><MEAN_ANOMALY>289.7547</MEAN_ANOMALY></meanElements><tleParameters><EPHEMERIS_TYPE>0</EPHEMERIS_TYPE><CLASSIFICATION_TYPE>U</CLASSIFICATION_TYPE><NORAD_CAT_ID>49075</NORAD_CAT_ID><ELEMENT_SET_NO>999</ELEMENT_SET_NO><REV_AT_EPOCH>10608</REV_AT_EPOCH><BSTAR>-.82605E-3</BSTAR><MEAN_MOTION_DOT>-.284E-5</MEAN_MOTION_DOT><MEAN_MOTION_DDOT>0</MEAN_MOTION_DDOT></tleParameters></data></segment></body></omm>
<omm id="CCSDS_OMM_VERS" version="2.0">
<header><CREATION_DATE/><ORIGINATOR/></header><body><segment><metadata><OBJECT_NAME>ONEWEB-0286</OBJECT_NAME><OBJECT_ID>2021-075B</OBJECT_ID><CENTER_NAME>EARTH</CENTER_NAME><REF_FRAME>TEME</REF_FRAME><TIME_SYSTEM>UTC</TIME_SYSTEM><MEAN_ELEMENT_THEORY>SGP4</MEAN_ELEMENT_THEORY></metadata><data><meanElements><EPOCH>2023-10-06T19:26:15.207936</EPOCH><MEAN_MOTION>13.12443155</MEAN_MOTION><ECCENTRICITY>.0001673</ECCENTRICITY><INCLINATION>87.9073</INCLINATION><RA_OF_ASC_NODE>186.3873</RA_OF_ASC_NODE><ARG_OF_PERICENTER>89.6062</ARG_OF_PERICENTER><MEAN_ANOMALY>270.5259</MEAN_ANOMALY></meanElements><tleParameters><EPHEMERIS_TYPE>0</EPHEMERIS_TYPE><CLASSIFICATION_TYPE>U</CLASSIFICATION_TYPE><NORAD_CAT_ID>49076</NORAD_CAT_ID><ELEMENT_SET_NO>999</ELEMENT_SET_NO><REV_AT_EPOCH>10544</REV_AT_EPOCH><BSTAR>.97087E-3</BSTAR><MEAN_MOTION_DOT>.362E-5</MEAN_MOTION_DOT><MEAN_MOTION_DDOT>0</MEAN_MOTION_DDOT></tleParameters></data></segment></body></omm>
<omm id="CCSDS_OMM_VERS" version="2.0">
<header><CREATION_DATE/><ORIGINATOR/></header><body><segment><metadata><OBJECT_NAME>ONEWEB-0287</OBJECT_NAME><OBJECT_ID>2021-075C</OBJECT_ID><CENTER_NAME>EARTH</CENTER_NAME><REF_FRAME>TEME</REF_FRAME><TIME_SYSTEM>UTC</TIME_SYSTEM><MEAN_ELEMENT_THEORY>SGP4</MEAN_ELEMENT_THEORY></metadata><data><meanElements><EPOCH>2023-10-06T19:23:24.536832</EPOCH><MEAN_MOTION>13.17646998</MEAN_MOTION><ECCENTRICITY>.0001505</ECCENTRICITY><INCLINATION>87.9179</INCLINATION><RA_OF_ASC_NODE>201.4927</RA_OF_ASC_NODE><ARG_OF_PERICENTER>71.7645</ARG_OF_PERICENTER><MEAN_ANOMALY>288.3650</MEAN_ANOMALY></meanElements><tleParameters><EPHEMERIS_TYPE>0</EPHEMERIS_TYPE><CLASSIFICATION_TYPE>U</CLASSIFICATION_TYPE><NORAD_CAT_ID>49077</NORAD_CAT_ID><ELEMENT_SET_NO>999</ELEMENT_SET_NO><REV_AT_EPOCH>10399</REV_AT_EPOCH><BSTAR>.33396E-4</BSTAR><MEAN_MOTION_DOT>.26E-6</MEAN_MOTION_DOT><MEAN_MOTION_DDOT>0</MEAN_MOTION_DDOT></tleParameters></data></segment></body></omm>
<omm id="CCSDS_OMM_VERS" version="2.0">
<header><CREATION_DATE/><ORIGINATOR/></header><body><segment><metadata><OBJECT_NAME>ONEWEB-0288</OBJECT_NAME><OBJECT_ID>2021-075D</OBJECT_ID><CENTER_NAME>EARTH</CENTER_NAME><REF_FRAME>TEME</REF_FRAME><TIME_SYSTEM>UTC</TIME_SYSTEM><MEAN_ELEMENT_THEORY>SGP4</MEAN_ELEMENT_THEORY></metadata><data><meanElements><EPOCH>2023-10-06T19:04:52.561056</EPOCH><MEAN_MOTION>13.12445357</MEAN_MOTION><ECCENTRICITY>.0001647</ECCENTRICITY><INCLINATION>87.9074</INCLINATION><RA_OF_ASC_NODE>186.3953</RA_OF_ASC_NODE><ARG_OF_PERICENTER>74.9235</ARG_OF_PERICENTER><MEAN_ANOMALY>285.2076</MEAN_ANOMALY></meanElements><tleParameters><EPHEMERIS_TYPE>0</EPHEMERIS_TYPE><CLASSIFICATION_TYPE>U</CLASSIFICATION_TYPE><NORAD_CAT_ID>49078</NORAD_CAT_ID><ELEMENT_SET_NO>999</ELEMENT_SET_NO><REV_AT_EPOCH>10606</REV_AT_EPOCH><BSTAR>.80713E-3</BSTAR><MEAN_MOTION_DOT>.303E-5</MEAN_MOTION_DOT><MEAN_MOTION_DDOT>0</MEAN_MOTION_DDOT></tleParameters></data></segment></body></omm>

</ndm>
