ONEWEB-0281             
1 48999U 21060AJ  23279.90626063  .00000006  00000+0 -17870-4 0  9996
2 48999  87.9031  64.6664 0001838 100.8523 259.2815 13.16593649110113
ONEWEB-0282             
1 49000U 21060AK  23279.93581115  .00000129  00000+0  30456-3 0  9990
2 49000  87.9031  64.6766 0001748  80.9858 279.1471 13.16594005110092
ONEWEB-0283             
1 49001U 21060AL  23279.92525503  .00000106  00000+0  24325-3 0  9992
2 49001  87.9090  64.6783 0002016  85.7157 274.4204 13.16594122110105
ONEWEB-0284             
1 49002U 21060AM  23279.91891875  .00000045  00000+0  83969-4 0  9992
2 49002  87.9016  64.6957 0001667  83.8047 276.3273 13.16595509110089
ONEWEB-0285             
1 49075U 21075A   23279.76538929 -.00000284  00000+0 -82605-3 0  9991
2 49075  87.9073 186.3872 0001850  70.3781 289.7547 13.12445683106080
ONEWEB-0286             
1 49076U 21075B   23279.80989824  .00000362  00000+0  97087-3 0  9996
2 49076  87.9073 186.3873 0001673  89.6062 270.5259 13.12443155105449
ONEWEB-0287             
1 49077U 21075C   23279.80792288  .00000026  00000+0  33396-4 0  9994
2 49077  87.9179 201.4927 0001505  71.7645 288.3650 13.17646998103994
ONEWEB-0288             
1 49078U 21075D   23279.79505279  .00000303  00000+0  80713-3 0  9997
2 49078  87.9074 186.3953 0001647  74.9235 285.2076 13.12445357106066
